plot_id,plot_name,plot_gradient,farmer_kn_soil,soil_texture,latitude,longitude,altitude,accuracy,farmer_id,farmer_name,community_id,community_label,country_id,country_label
1,Roadside,flat,NULL,NULL,NULL,NULL,NULL,NULL,1,Farmer 1,1,Community 1,BF,Burkina Faso
2,South Field,gentle_slope,NULL,NULL,NULL,NULL,NULL,NULL,1,Farmer 1,1,Community 1,BF,Burkina Faso
3,Roadside,flat,NULL,NULL,NULL,NULL,NULL,NULL,2,Farmer 2,1,Community 1,BF,Burkina Faso
4,South Field,gentle_slope,NULL,NULL,NULL,NULL,NULL,NULL,2,Farmer 2,1,Community 1,BF,Burkina Faso
5,Roadside,flat,NULL,NULL,NULL,NULL,NULL,NULL,3,Farmer 3 ,1,Community 1,BF,Burkina Faso
6,South Field,gentle_slope,NULL,NULL,NULL,NULL,NULL,NULL,3,Farmer 3 ,1,Community 1,BF,Burkina Faso
7,Roadside,flat,NULL,NULL,NULL,NULL,NULL,NULL,4,Farmer 4,1,Community 1,BF,Burkina Faso
8,South Field,gentle_slope,NULL,NULL,NULL,NULL,NULL,NULL,4,Farmer 4,1,Community 1,BF,Burkina Faso
9,Roadside,flat,NULL,NULL,NULL,NULL,NULL,NULL,5,Farmer 1,2,Community 2,BF,Burkina Faso
10,South Field,gentle_slope,NULL,NULL,NULL,NULL,NULL,NULL,5,Farmer 1,2,Community 2,BF,Burkina Faso
11,Roadside,flat,NULL,NULL,NULL,NULL,NULL,NULL,6,Farmer 2,2,Community 2,BF,Burkina Faso
12,South Field,gentle_slope,NULL,NULL,NULL,NULL,NULL,NULL,6,Farmer 2,2,Community 2,BF,Burkina Faso
13,Roadside,flat,NULL,NULL,NULL,NULL,NULL,NULL,7,Farmer 3 ,2,Community 2,BF,Burkina Faso
14,South Field,gentle_slope,NULL,NULL,NULL,NULL,NULL,NULL,7,Farmer 3 ,2,Community 2,BF,Burkina Faso
16,South Field,gentle_slope,NULL,NULL,NULL,NULL,NULL,NULL,8,Farmer 4,2,Community 2,BF,Burkina Faso
15,Roadside,flat,NULL,NULL,NULL,NULL,NULL,NULL,8,Farmer 4,2,Community 2,BF,Burkina Faso
18,South Field,gentle_slope,NULL,NULL,NULL,NULL,NULL,NULL,9,Farmer 1,3,Community 3,BF,Burkina Faso
17,Roadside,flat,NULL,NULL,NULL,NULL,NULL,NULL,9,Farmer 1,3,Community 3,BF,Burkina Faso
20,South Field,gentle_slope,NULL,NULL,NULL,NULL,NULL,NULL,10,Farmer 2,3,Community 3,BF,Burkina Faso
19,Roadside,flat,NULL,NULL,NULL,NULL,NULL,NULL,10,Farmer 2,3,Community 3,BF,Burkina Faso
22,South Field,gentle_slope,NULL,NULL,NULL,NULL,NULL,NULL,11,Farmer 3 ,3,Community 3,BF,Burkina Faso
21,Roadside,flat,NULL,NULL,NULL,NULL,NULL,NULL,11,Farmer 3 ,3,Community 3,BF,Burkina Faso
24,South Field,gentle_slope,NULL,NULL,NULL,NULL,NULL,NULL,12,Farmer 4,3,Community 3,BF,Burkina Faso
23,Roadside,flat,NULL,NULL,NULL,NULL,NULL,NULL,12,Farmer 4,3,Community 3,BF,Burkina Faso
26,South Field,gentle_slope,NULL,NULL,NULL,NULL,NULL,NULL,13,Farmer 1,4,Community 4,BF,Burkina Faso
25,Roadside,flat,NULL,NULL,NULL,NULL,NULL,NULL,13,Farmer 1,4,Community 4,BF,Burkina Faso
28,South Field,gentle_slope,NULL,NULL,NULL,NULL,NULL,NULL,14,Farmer 2,4,Community 4,BF,Burkina Faso
27,Roadside,flat,NULL,NULL,NULL,NULL,NULL,NULL,14,Farmer 2,4,Community 4,BF,Burkina Faso
30,South Field,gentle_slope,NULL,NULL,NULL,NULL,NULL,NULL,15,Farmer 3 ,4,Community 4,BF,Burkina Faso
29,Roadside,flat,NULL,NULL,NULL,NULL,NULL,NULL,15,Farmer 3 ,4,Community 4,BF,Burkina Faso
32,South Field,gentle_slope,NULL,NULL,NULL,NULL,NULL,NULL,16,Farmer 4,4,Community 4,BF,Burkina Faso
31,Roadside,flat,NULL,NULL,NULL,NULL,NULL,NULL,16,Farmer 4,4,Community 4,BF,Burkina Faso
34,South Field,gentle_slope,NULL,NULL,NULL,NULL,NULL,NULL,17,Farmer 1,5,Community 1,BO,Bolivia
33,Roadside,flat,NULL,NULL,NULL,NULL,NULL,NULL,17,Farmer 1,5,Community 1,BO,Bolivia
36,South Field,gentle_slope,NULL,NULL,NULL,NULL,NULL,NULL,18,Farmer 2,5,Community 1,BO,Bolivia
35,Roadside,flat,NULL,NULL,NULL,NULL,NULL,NULL,18,Farmer 2,5,Community 1,BO,Bolivia
38,South Field,gentle_slope,NULL,NULL,NULL,NULL,NULL,NULL,19,Farmer 3 ,5,Community 1,BO,Bolivia
37,Roadside,flat,NULL,NULL,NULL,NULL,NULL,NULL,19,Farmer 3 ,5,Community 1,BO,Bolivia
40,South Field,gentle_slope,NULL,NULL,NULL,NULL,NULL,NULL,20,Farmer 4,5,Community 1,BO,Bolivia
39,Roadside,flat,NULL,NULL,NULL,NULL,NULL,NULL,20,Farmer 4,5,Community 1,BO,Bolivia
42,South Field,gentle_slope,NULL,NULL,NULL,NULL,NULL,NULL,21,Farmer 1,6,Community 2,BO,Bolivia
41,Roadside,flat,NULL,NULL,NULL,NULL,NULL,NULL,21,Farmer 1,6,Community 2,BO,Bolivia
44,South Field,gentle_slope,NULL,NULL,NULL,NULL,NULL,NULL,22,Farmer 2,6,Community 2,BO,Bolivia
43,Roadside,flat,NULL,NULL,NULL,NULL,NULL,NULL,22,Farmer 2,6,Community 2,BO,Bolivia
46,South Field,gentle_slope,NULL,NULL,NULL,NULL,NULL,NULL,23,Farmer 3 ,6,Community 2,BO,Bolivia
45,Roadside,flat,NULL,NULL,NULL,NULL,NULL,NULL,23,Farmer 3 ,6,Community 2,BO,Bolivia
47,Roadside,flat,NULL,NULL,NULL,NULL,NULL,NULL,24,Farmer 4,6,Community 2,BO,Bolivia
48,South Field,gentle_slope,NULL,NULL,NULL,NULL,NULL,NULL,24,Farmer 4,6,Community 2,BO,Bolivia
49,Roadside,flat,NULL,NULL,NULL,NULL,NULL,NULL,25,Farmer 1,7,Community 3,BO,Bolivia
50,South Field,gentle_slope,NULL,NULL,NULL,NULL,NULL,NULL,25,Farmer 1,7,Community 3,BO,Bolivia
51,Roadside,flat,NULL,NULL,NULL,NULL,NULL,NULL,26,Farmer 2,7,Community 3,BO,Bolivia
52,South Field,gentle_slope,NULL,NULL,NULL,NULL,NULL,NULL,26,Farmer 2,7,Community 3,BO,Bolivia
53,Roadside,flat,NULL,NULL,NULL,NULL,NULL,NULL,27,Farmer 3 ,7,Community 3,BO,Bolivia
54,South Field,gentle_slope,NULL,NULL,NULL,NULL,NULL,NULL,27,Farmer 3 ,7,Community 3,BO,Bolivia
55,Roadside,flat,NULL,NULL,NULL,NULL,NULL,NULL,28,Farmer 4,7,Community 3,BO,Bolivia
56,South Field,gentle_slope,NULL,NULL,NULL,NULL,NULL,NULL,28,Farmer 4,7,Community 3,BO,Bolivia
57,Roadside,flat,NULL,NULL,NULL,NULL,NULL,NULL,29,Farmer 1,8,Community 4,BO,Bolivia
58,South Field,gentle_slope,NULL,NULL,NULL,NULL,NULL,NULL,29,Farmer 1,8,Community 4,BO,Bolivia
60,South Field,gentle_slope,NULL,NULL,NULL,NULL,NULL,NULL,30,Farmer 2,8,Community 4,BO,Bolivia
59,Roadside,flat,NULL,NULL,NULL,NULL,NULL,NULL,30,Farmer 2,8,Community 4,BO,Bolivia
62,South Field,gentle_slope,NULL,NULL,NULL,NULL,NULL,NULL,31,Farmer 3 ,8,Community 4,BO,Bolivia
61,Roadside,flat,NULL,NULL,NULL,NULL,NULL,NULL,31,Farmer 3 ,8,Community 4,BO,Bolivia
64,South Field,gentle_slope,NULL,NULL,NULL,NULL,NULL,NULL,32,Farmer 4,8,Community 4,BO,Bolivia
63,Roadside,flat,NULL,NULL,NULL,NULL,NULL,NULL,32,Farmer 4,8,Community 4,BO,Bolivia
66,South Field,gentle_slope,NULL,NULL,NULL,NULL,NULL,NULL,33,Farmer 1,9,Community 1,EC,Ecuador
65,Roadside,flat,NULL,NULL,NULL,NULL,NULL,NULL,33,Farmer 1,9,Community 1,EC,Ecuador
68,South Field,gentle_slope,NULL,NULL,NULL,NULL,NULL,NULL,34,Farmer 2,9,Community 1,EC,Ecuador
67,Roadside,flat,NULL,NULL,NULL,NULL,NULL,NULL,34,Farmer 2,9,Community 1,EC,Ecuador
70,South Field,gentle_slope,NULL,NULL,NULL,NULL,NULL,NULL,35,Farmer 3 ,9,Community 1,EC,Ecuador
69,Roadside,flat,NULL,NULL,NULL,NULL,NULL,NULL,35,Farmer 3 ,9,Community 1,EC,Ecuador
72,South Field,gentle_slope,NULL,NULL,NULL,NULL,NULL,NULL,36,Farmer 4,9,Community 1,EC,Ecuador
71,Roadside,flat,NULL,NULL,NULL,NULL,NULL,NULL,36,Farmer 4,9,Community 1,EC,Ecuador
73,Roadside,flat,NULL,NULL,NULL,NULL,NULL,NULL,37,Farmer 1,10,Community 2,EC,Ecuador
74,South Field,gentle_slope,NULL,NULL,NULL,NULL,NULL,NULL,37,Farmer 1,10,Community 2,EC,Ecuador
75,Roadside,flat,NULL,NULL,NULL,NULL,NULL,NULL,38,Farmer 2,10,Community 2,EC,Ecuador
76,South Field,gentle_slope,NULL,NULL,NULL,NULL,NULL,NULL,38,Farmer 2,10,Community 2,EC,Ecuador
77,Roadside,flat,NULL,NULL,NULL,NULL,NULL,NULL,39,Farmer 3 ,10,Community 2,EC,Ecuador
78,South Field,gentle_slope,NULL,NULL,NULL,NULL,NULL,NULL,39,Farmer 3 ,10,Community 2,EC,Ecuador
79,Roadside,flat,NULL,NULL,NULL,NULL,NULL,NULL,40,Farmer 4,10,Community 2,EC,Ecuador
80,South Field,gentle_slope,NULL,NULL,NULL,NULL,NULL,NULL,40,Farmer 4,10,Community 2,EC,Ecuador
81,Roadside,flat,NULL,NULL,NULL,NULL,NULL,NULL,41,Farmer 1,11,Community 3,EC,Ecuador
82,South Field,gentle_slope,NULL,NULL,NULL,NULL,NULL,NULL,41,Farmer 1,11,Community 3,EC,Ecuador
83,Roadside,flat,NULL,NULL,NULL,NULL,NULL,NULL,42,Farmer 2,11,Community 3,EC,Ecuador
84,South Field,gentle_slope,NULL,NULL,NULL,NULL,NULL,NULL,42,Farmer 2,11,Community 3,EC,Ecuador
85,Roadside,flat,NULL,NULL,NULL,NULL,NULL,NULL,43,Farmer 3 ,11,Community 3,EC,Ecuador
86,South Field,gentle_slope,NULL,NULL,NULL,NULL,NULL,NULL,43,Farmer 3 ,11,Community 3,EC,Ecuador
88,South Field,gentle_slope,NULL,NULL,NULL,NULL,NULL,NULL,44,Farmer 4,11,Community 3,EC,Ecuador
87,Roadside,flat,NULL,NULL,NULL,NULL,NULL,NULL,44,Farmer 4,11,Community 3,EC,Ecuador
90,South Field,gentle_slope,NULL,NULL,NULL,NULL,NULL,NULL,45,Farmer 1,12,Community 4,EC,Ecuador
89,Roadside,flat,NULL,NULL,NULL,NULL,NULL,NULL,45,Farmer 1,12,Community 4,EC,Ecuador
92,South Field,gentle_slope,NULL,NULL,NULL,NULL,NULL,NULL,46,Farmer 2,12,Community 4,EC,Ecuador
91,Roadside,flat,NULL,NULL,NULL,NULL,NULL,NULL,46,Farmer 2,12,Community 4,EC,Ecuador
94,South Field,gentle_slope,NULL,NULL,NULL,NULL,NULL,NULL,47,Farmer 3 ,12,Community 4,EC,Ecuador
93,Roadside,flat,NULL,NULL,NULL,NULL,NULL,NULL,47,Farmer 3 ,12,Community 4,EC,Ecuador
96,South Field,gentle_slope,NULL,NULL,NULL,NULL,NULL,NULL,48,Farmer 4,12,Community 4,EC,Ecuador
95,Roadside,flat,NULL,NULL,NULL,NULL,NULL,NULL,48,Farmer 4,12,Community 4,EC,Ecuador
98,South Field,gentle_slope,NULL,NULL,NULL,NULL,NULL,NULL,49,Farmer 1,13,Community 1,ET,Ethiopia
97,Roadside,flat,NULL,NULL,NULL,NULL,NULL,NULL,49,Farmer 1,13,Community 1,ET,Ethiopia
100,South Field,gentle_slope,NULL,NULL,NULL,NULL,NULL,NULL,50,Farmer 2,13,Community 1,ET,Ethiopia
99,Roadside,flat,NULL,NULL,NULL,NULL,NULL,NULL,50,Farmer 2,13,Community 1,ET,Ethiopia
101,Roadside,flat,NULL,NULL,NULL,NULL,NULL,NULL,51,Farmer 3 ,13,Community 1,ET,Ethiopia
102,South Field,gentle_slope,NULL,NULL,NULL,NULL,NULL,NULL,51,Farmer 3 ,13,Community 1,ET,Ethiopia
103,Roadside,flat,NULL,NULL,NULL,NULL,NULL,NULL,52,Farmer 4,13,Community 1,ET,Ethiopia
104,South Field,gentle_slope,NULL,NULL,NULL,NULL,NULL,NULL,52,Farmer 4,13,Community 1,ET,Ethiopia
105,Roadside,flat,NULL,NULL,NULL,NULL,NULL,NULL,53,Farmer 1,14,Community 2,ET,Ethiopia
106,South Field,gentle_slope,NULL,NULL,NULL,NULL,NULL,NULL,53,Farmer 1,14,Community 2,ET,Ethiopia
107,Roadside,flat,NULL,NULL,NULL,NULL,NULL,NULL,54,Farmer 2,14,Community 2,ET,Ethiopia
108,South Field,gentle_slope,NULL,NULL,NULL,NULL,NULL,NULL,54,Farmer 2,14,Community 2,ET,Ethiopia
109,Roadside,flat,NULL,NULL,NULL,NULL,NULL,NULL,55,Farmer 3 ,14,Community 2,ET,Ethiopia
110,South Field,gentle_slope,NULL,NULL,NULL,NULL,NULL,NULL,55,Farmer 3 ,14,Community 2,ET,Ethiopia
111,Roadside,flat,NULL,NULL,NULL,NULL,NULL,NULL,56,Farmer 4,14,Community 2,ET,Ethiopia
112,South Field,gentle_slope,NULL,NULL,NULL,NULL,NULL,NULL,56,Farmer 4,14,Community 2,ET,Ethiopia
113,Roadside,flat,NULL,NULL,NULL,NULL,NULL,NULL,57,Farmer 1,15,Community 3,ET,Ethiopia
114,South Field,gentle_slope,NULL,NULL,NULL,NULL,NULL,NULL,57,Farmer 1,15,Community 3,ET,Ethiopia
116,South Field,gentle_slope,NULL,NULL,NULL,NULL,NULL,NULL,58,Farmer 2,15,Community 3,ET,Ethiopia
115,Roadside,flat,NULL,NULL,NULL,NULL,NULL,NULL,58,Farmer 2,15,Community 3,ET,Ethiopia
118,South Field,gentle_slope,NULL,NULL,NULL,NULL,NULL,NULL,59,Farmer 3 ,15,Community 3,ET,Ethiopia
117,Roadside,flat,NULL,NULL,NULL,NULL,NULL,NULL,59,Farmer 3 ,15,Community 3,ET,Ethiopia
120,South Field,gentle_slope,NULL,NULL,NULL,NULL,NULL,NULL,60,Farmer 4,15,Community 3,ET,Ethiopia
119,Roadside,flat,NULL,NULL,NULL,NULL,NULL,NULL,60,Farmer 4,15,Community 3,ET,Ethiopia
122,South Field,gentle_slope,NULL,NULL,NULL,NULL,NULL,NULL,61,Farmer 1,16,Community 4,ET,Ethiopia
121,Roadside,flat,NULL,NULL,NULL,NULL,NULL,NULL,61,Farmer 1,16,Community 4,ET,Ethiopia
124,South Field,gentle_slope,NULL,NULL,NULL,NULL,NULL,NULL,62,Farmer 2,16,Community 4,ET,Ethiopia
123,Roadside,flat,NULL,NULL,NULL,NULL,NULL,NULL,62,Farmer 2,16,Community 4,ET,Ethiopia
126,South Field,gentle_slope,NULL,NULL,NULL,NULL,NULL,NULL,63,Farmer 3 ,16,Community 4,ET,Ethiopia
125,Roadside,flat,NULL,NULL,NULL,NULL,NULL,NULL,63,Farmer 3 ,16,Community 4,ET,Ethiopia
127,Roadside,flat,NULL,NULL,NULL,NULL,NULL,NULL,64,Farmer 4,16,Community 4,ET,Ethiopia
128,South Field,gentle_slope,NULL,NULL,NULL,NULL,NULL,NULL,64,Farmer 4,16,Community 4,ET,Ethiopia
129,Roadside,flat,NULL,NULL,NULL,NULL,NULL,NULL,65,Farmer 1,17,Community 1,KE,Kenya
130,South Field,gentle_slope,NULL,NULL,NULL,NULL,NULL,NULL,65,Farmer 1,17,Community 1,KE,Kenya
131,Roadside,flat,NULL,NULL,NULL,NULL,NULL,NULL,66,Farmer 2,17,Community 1,KE,Kenya
132,South Field,gentle_slope,NULL,NULL,NULL,NULL,NULL,NULL,66,Farmer 2,17,Community 1,KE,Kenya
133,Roadside,flat,NULL,NULL,NULL,NULL,NULL,NULL,67,Farmer 3 ,17,Community 1,KE,Kenya
134,South Field,gentle_slope,NULL,NULL,NULL,NULL,NULL,NULL,67,Farmer 3 ,17,Community 1,KE,Kenya
135,Roadside,flat,NULL,NULL,NULL,NULL,NULL,NULL,68,Farmer 4,17,Community 1,KE,Kenya
136,South Field,gentle_slope,NULL,NULL,NULL,NULL,NULL,NULL,68,Farmer 4,17,Community 1,KE,Kenya
137,Roadside,flat,NULL,NULL,NULL,NULL,NULL,NULL,69,Farmer 1,18,Community 2,KE,Kenya
138,South Field,gentle_slope,NULL,NULL,NULL,NULL,NULL,NULL,69,Farmer 1,18,Community 2,KE,Kenya
139,Roadside,flat,NULL,NULL,NULL,NULL,NULL,NULL,70,Farmer 2,18,Community 2,KE,Kenya
140,South Field,gentle_slope,NULL,NULL,NULL,NULL,NULL,NULL,70,Farmer 2,18,Community 2,KE,Kenya
141,Roadside,flat,NULL,NULL,NULL,NULL,NULL,NULL,71,Farmer 3 ,18,Community 2,KE,Kenya
142,South Field,gentle_slope,NULL,NULL,NULL,NULL,NULL,NULL,71,Farmer 3 ,18,Community 2,KE,Kenya
144,South Field,gentle_slope,NULL,NULL,NULL,NULL,NULL,NULL,72,Farmer 4,18,Community 2,KE,Kenya
143,Roadside,flat,NULL,NULL,NULL,NULL,NULL,NULL,72,Farmer 4,18,Community 2,KE,Kenya
146,South Field,gentle_slope,NULL,NULL,NULL,NULL,NULL,NULL,73,Farmer 1,19,Community 3,KE,Kenya
145,Roadside,flat,NULL,NULL,NULL,NULL,NULL,NULL,73,Farmer 1,19,Community 3,KE,Kenya
148,South Field,gentle_slope,NULL,NULL,NULL,NULL,NULL,NULL,74,Farmer 2,19,Community 3,KE,Kenya
147,Roadside,flat,NULL,NULL,NULL,NULL,NULL,NULL,74,Farmer 2,19,Community 3,KE,Kenya
150,South Field,gentle_slope,NULL,NULL,NULL,NULL,NULL,NULL,75,Farmer 3 ,19,Community 3,KE,Kenya
149,Roadside,flat,NULL,NULL,NULL,NULL,NULL,NULL,75,Farmer 3 ,19,Community 3,KE,Kenya
152,South Field,gentle_slope,NULL,NULL,NULL,NULL,NULL,NULL,76,Farmer 4,19,Community 3,KE,Kenya
151,Roadside,flat,NULL,NULL,NULL,NULL,NULL,NULL,76,Farmer 4,19,Community 3,KE,Kenya
154,South Field,gentle_slope,NULL,NULL,NULL,NULL,NULL,NULL,77,Farmer 1,20,Community 4,KE,Kenya
153,Roadside,flat,NULL,NULL,NULL,NULL,NULL,NULL,77,Farmer 1,20,Community 4,KE,Kenya
155,Roadside,flat,NULL,NULL,NULL,NULL,NULL,NULL,78,Farmer 2,20,Community 4,KE,Kenya
156,South Field,gentle_slope,NULL,NULL,NULL,NULL,NULL,NULL,78,Farmer 2,20,Community 4,KE,Kenya
157,Roadside,flat,NULL,NULL,NULL,NULL,NULL,NULL,79,Farmer 3 ,20,Community 4,KE,Kenya
158,South Field,gentle_slope,NULL,NULL,NULL,NULL,NULL,NULL,79,Farmer 3 ,20,Community 4,KE,Kenya
159,Roadside,flat,NULL,NULL,NULL,NULL,NULL,NULL,80,Farmer 4,20,Community 4,KE,Kenya
160,South Field,gentle_slope,NULL,NULL,NULL,NULL,NULL,NULL,80,Farmer 4,20,Community 4,KE,Kenya
161,Roadside,flat,NULL,NULL,NULL,NULL,NULL,NULL,81,Farmer 1,21,Community 1,ML,Mali
162,South Field,gentle_slope,NULL,NULL,NULL,NULL,NULL,NULL,81,Farmer 1,21,Community 1,ML,Mali
163,Roadside,flat,NULL,NULL,NULL,NULL,NULL,NULL,82,Farmer 2,21,Community 1,ML,Mali
164,South Field,gentle_slope,NULL,NULL,NULL,NULL,NULL,NULL,82,Farmer 2,21,Community 1,ML,Mali
165,Roadside,flat,NULL,NULL,NULL,NULL,NULL,NULL,83,Farmer 3 ,21,Community 1,ML,Mali
166,South Field,gentle_slope,NULL,NULL,NULL,NULL,NULL,NULL,83,Farmer 3 ,21,Community 1,ML,Mali
167,Roadside,flat,NULL,NULL,NULL,NULL,NULL,NULL,84,Farmer 4,21,Community 1,ML,Mali
168,South Field,gentle_slope,NULL,NULL,NULL,NULL,NULL,NULL,84,Farmer 4,21,Community 1,ML,Mali
170,South Field,gentle_slope,NULL,NULL,NULL,NULL,NULL,NULL,85,Farmer 1,22,Community 2,ML,Mali
169,Roadside,flat,NULL,NULL,NULL,NULL,NULL,NULL,85,Farmer 1,22,Community 2,ML,Mali
172,South Field,gentle_slope,NULL,NULL,NULL,NULL,NULL,NULL,86,Farmer 2,22,Community 2,ML,Mali
171,Roadside,flat,NULL,NULL,NULL,NULL,NULL,NULL,86,Farmer 2,22,Community 2,ML,Mali
174,South Field,gentle_slope,NULL,NULL,NULL,NULL,NULL,NULL,87,Farmer 3 ,22,Community 2,ML,Mali
173,Roadside,flat,NULL,NULL,NULL,NULL,NULL,NULL,87,Farmer 3 ,22,Community 2,ML,Mali
176,South Field,gentle_slope,NULL,NULL,NULL,NULL,NULL,NULL,88,Farmer 4,22,Community 2,ML,Mali
175,Roadside,flat,NULL,NULL,NULL,NULL,NULL,NULL,88,Farmer 4,22,Community 2,ML,Mali
178,South Field,gentle_slope,NULL,NULL,NULL,NULL,NULL,NULL,89,Farmer 1,23,Community 3,ML,Mali
177,Roadside,flat,NULL,NULL,NULL,NULL,NULL,NULL,89,Farmer 1,23,Community 3,ML,Mali
180,South Field,gentle_slope,NULL,NULL,NULL,NULL,NULL,NULL,90,Farmer 2,23,Community 3,ML,Mali
179,Roadside,flat,NULL,NULL,NULL,NULL,NULL,NULL,90,Farmer 2,23,Community 3,ML,Mali
181,Roadside,flat,NULL,NULL,NULL,NULL,NULL,NULL,91,Farmer 3 ,23,Community 3,ML,Mali
182,South Field,gentle_slope,NULL,NULL,NULL,NULL,NULL,NULL,91,Farmer 3 ,23,Community 3,ML,Mali
183,Roadside,flat,NULL,NULL,NULL,NULL,NULL,NULL,92,Farmer 4,23,Community 3,ML,Mali
184,South Field,gentle_slope,NULL,NULL,NULL,NULL,NULL,NULL,92,Farmer 4,23,Community 3,ML,Mali
185,Roadside,flat,NULL,NULL,NULL,NULL,NULL,NULL,93,Farmer 1,24,Community 4,ML,Mali
186,South Field,gentle_slope,NULL,NULL,NULL,NULL,NULL,NULL,93,Farmer 1,24,Community 4,ML,Mali
187,Roadside,flat,NULL,NULL,NULL,NULL,NULL,NULL,94,Farmer 2,24,Community 4,ML,Mali
188,South Field,gentle_slope,NULL,NULL,NULL,NULL,NULL,NULL,94,Farmer 2,24,Community 4,ML,Mali
189,Roadside,flat,NULL,NULL,NULL,NULL,NULL,NULL,95,Farmer 3 ,24,Community 4,ML,Mali
190,South Field,gentle_slope,NULL,NULL,NULL,NULL,NULL,NULL,95,Farmer 3 ,24,Community 4,ML,Mali
191,Roadside,flat,NULL,NULL,NULL,NULL,NULL,NULL,96,Farmer 4,24,Community 4,ML,Mali
192,South Field,gentle_slope,NULL,NULL,NULL,NULL,NULL,NULL,96,Farmer 4,24,Community 4,ML,Mali
193,Roadside,flat,NULL,NULL,NULL,NULL,NULL,NULL,97,Farmer 1,25,Community 1,MW,Malawi
194,South Field,gentle_slope,NULL,NULL,NULL,NULL,NULL,NULL,97,Farmer 1,25,Community 1,MW,Malawi
195,Roadside,flat,NULL,NULL,NULL,NULL,NULL,NULL,98,Farmer 2,25,Community 1,MW,Malawi
196,South Field,gentle_slope,NULL,NULL,NULL,NULL,NULL,NULL,98,Farmer 2,25,Community 1,MW,Malawi
198,South Field,gentle_slope,NULL,NULL,NULL,NULL,NULL,NULL,99,Farmer 3 ,25,Community 1,MW,Malawi
197,Roadside,flat,NULL,NULL,NULL,NULL,NULL,NULL,99,Farmer 3 ,25,Community 1,MW,Malawi
200,South Field,gentle_slope,NULL,NULL,NULL,NULL,NULL,NULL,100,Farmer 4,25,Community 1,MW,Malawi
199,Roadside,flat,NULL,NULL,NULL,NULL,NULL,NULL,100,Farmer 4,25,Community 1,MW,Malawi
202,South Field,gentle_slope,NULL,NULL,NULL,NULL,NULL,NULL,101,Farmer 1,26,Community 2,MW,Malawi
201,Roadside,flat,NULL,NULL,NULL,NULL,NULL,NULL,101,Farmer 1,26,Community 2,MW,Malawi
204,South Field,gentle_slope,NULL,NULL,NULL,NULL,NULL,NULL,102,Farmer 2,26,Community 2,MW,Malawi
203,Roadside,flat,NULL,NULL,NULL,NULL,NULL,NULL,102,Farmer 2,26,Community 2,MW,Malawi
206,South Field,gentle_slope,NULL,NULL,NULL,NULL,NULL,NULL,103,Farmer 3 ,26,Community 2,MW,Malawi
205,Roadside,flat,NULL,NULL,NULL,NULL,NULL,NULL,103,Farmer 3 ,26,Community 2,MW,Malawi
208,South Field,gentle_slope,NULL,NULL,NULL,NULL,NULL,NULL,104,Farmer 4,26,Community 2,MW,Malawi
207,Roadside,flat,NULL,NULL,NULL,NULL,NULL,NULL,104,Farmer 4,26,Community 2,MW,Malawi
209,Roadside,flat,NULL,NULL,NULL,NULL,NULL,NULL,105,Farmer 1,27,Community 3,MW,Malawi
210,South Field,gentle_slope,NULL,NULL,NULL,NULL,NULL,NULL,105,Farmer 1,27,Community 3,MW,Malawi
211,Roadside,flat,NULL,NULL,NULL,NULL,NULL,NULL,106,Farmer 2,27,Community 3,MW,Malawi
212,South Field,gentle_slope,NULL,NULL,NULL,NULL,NULL,NULL,106,Farmer 2,27,Community 3,MW,Malawi
213,Roadside,flat,NULL,NULL,NULL,NULL,NULL,NULL,107,Farmer 3 ,27,Community 3,MW,Malawi
214,South Field,gentle_slope,NULL,NULL,NULL,NULL,NULL,NULL,107,Farmer 3 ,27,Community 3,MW,Malawi
215,Roadside,flat,NULL,NULL,NULL,NULL,NULL,NULL,108,Farmer 4,27,Community 3,MW,Malawi
216,South Field,gentle_slope,NULL,NULL,NULL,NULL,NULL,NULL,108,Farmer 4,27,Community 3,MW,Malawi
217,Roadside,flat,NULL,NULL,NULL,NULL,NULL,NULL,109,Farmer 1,28,Community 4,MW,Malawi
218,South Field,gentle_slope,NULL,NULL,NULL,NULL,NULL,NULL,109,Farmer 1,28,Community 4,MW,Malawi
219,Roadside,flat,NULL,NULL,NULL,NULL,NULL,NULL,110,Farmer 2,28,Community 4,MW,Malawi
220,South Field,gentle_slope,NULL,NULL,NULL,NULL,NULL,NULL,110,Farmer 2,28,Community 4,MW,Malawi
221,Roadside,flat,NULL,NULL,NULL,NULL,NULL,NULL,111,Farmer 3 ,28,Community 4,MW,Malawi
222,South Field,gentle_slope,NULL,NULL,NULL,NULL,NULL,NULL,111,Farmer 3 ,28,Community 4,MW,Malawi
224,South Field,gentle_slope,NULL,NULL,NULL,NULL,NULL,NULL,112,Farmer 4,28,Community 4,MW,Malawi
223,Roadside,flat,NULL,NULL,NULL,NULL,NULL,NULL,112,Farmer 4,28,Community 4,MW,Malawi
226,South Field,gentle_slope,NULL,NULL,NULL,NULL,NULL,NULL,113,Farmer 1,29,Community 1,MZ,Mozambique
225,Roadside,flat,NULL,NULL,NULL,NULL,NULL,NULL,113,Farmer 1,29,Community 1,MZ,Mozambique
228,South Field,gentle_slope,NULL,NULL,NULL,NULL,NULL,NULL,114,Farmer 2,29,Community 1,MZ,Mozambique
227,Roadside,flat,NULL,NULL,NULL,NULL,NULL,NULL,114,Farmer 2,29,Community 1,MZ,Mozambique
230,South Field,gentle_slope,NULL,NULL,NULL,NULL,NULL,NULL,115,Farmer 3 ,29,Community 1,MZ,Mozambique
229,Roadside,flat,NULL,NULL,NULL,NULL,NULL,NULL,115,Farmer 3 ,29,Community 1,MZ,Mozambique
232,South Field,gentle_slope,NULL,NULL,NULL,NULL,NULL,NULL,116,Farmer 4,29,Community 1,MZ,Mozambique
231,Roadside,flat,NULL,NULL,NULL,NULL,NULL,NULL,116,Farmer 4,29,Community 1,MZ,Mozambique
234,South Field,gentle_slope,NULL,NULL,NULL,NULL,NULL,NULL,117,Farmer 1,30,Community 2,MZ,Mozambique
233,Roadside,flat,NULL,NULL,NULL,NULL,NULL,NULL,117,Farmer 1,30,Community 2,MZ,Mozambique
235,Roadside,flat,NULL,NULL,NULL,NULL,NULL,NULL,118,Farmer 2,30,Community 2,MZ,Mozambique
236,South Field,gentle_slope,NULL,NULL,NULL,NULL,NULL,NULL,118,Farmer 2,30,Community 2,MZ,Mozambique
237,Roadside,flat,NULL,NULL,NULL,NULL,NULL,NULL,119,Farmer 3 ,30,Community 2,MZ,Mozambique
238,South Field,gentle_slope,NULL,NULL,NULL,NULL,NULL,NULL,119,Farmer 3 ,30,Community 2,MZ,Mozambique
239,Roadside,flat,NULL,NULL,NULL,NULL,NULL,NULL,120,Farmer 4,30,Community 2,MZ,Mozambique
240,South Field,gentle_slope,NULL,NULL,NULL,NULL,NULL,NULL,120,Farmer 4,30,Community 2,MZ,Mozambique
241,Roadside,flat,NULL,NULL,NULL,NULL,NULL,NULL,121,Farmer 1,31,Community 3,MZ,Mozambique
242,South Field,gentle_slope,NULL,NULL,NULL,NULL,NULL,NULL,121,Farmer 1,31,Community 3,MZ,Mozambique
243,Roadside,flat,NULL,NULL,NULL,NULL,NULL,NULL,122,Farmer 2,31,Community 3,MZ,Mozambique
244,South Field,gentle_slope,NULL,NULL,NULL,NULL,NULL,NULL,122,Farmer 2,31,Community 3,MZ,Mozambique
245,Roadside,flat,NULL,NULL,NULL,NULL,NULL,NULL,123,Farmer 3 ,31,Community 3,MZ,Mozambique
246,South Field,gentle_slope,NULL,NULL,NULL,NULL,NULL,NULL,123,Farmer 3 ,31,Community 3,MZ,Mozambique
247,Roadside,flat,NULL,NULL,NULL,NULL,NULL,NULL,124,Farmer 4,31,Community 3,MZ,Mozambique
248,South Field,gentle_slope,NULL,NULL,NULL,NULL,NULL,NULL,124,Farmer 4,31,Community 3,MZ,Mozambique
249,Roadside,flat,NULL,NULL,NULL,NULL,NULL,NULL,125,Farmer 1,32,Community 4,MZ,Mozambique
250,South Field,gentle_slope,NULL,NULL,NULL,NULL,NULL,NULL,125,Farmer 1,32,Community 4,MZ,Mozambique
252,South Field,gentle_slope,NULL,NULL,NULL,NULL,NULL,NULL,126,Farmer 2,32,Community 4,MZ,Mozambique
251,Roadside,flat,NULL,NULL,NULL,NULL,NULL,NULL,126,Farmer 2,32,Community 4,MZ,Mozambique
254,South Field,gentle_slope,NULL,NULL,NULL,NULL,NULL,NULL,127,Farmer 3 ,32,Community 4,MZ,Mozambique
253,Roadside,flat,NULL,NULL,NULL,NULL,NULL,NULL,127,Farmer 3 ,32,Community 4,MZ,Mozambique
256,South Field,gentle_slope,NULL,NULL,NULL,NULL,NULL,NULL,128,Farmer 4,32,Community 4,MZ,Mozambique
255,Roadside,flat,NULL,NULL,NULL,NULL,NULL,NULL,128,Farmer 4,32,Community 4,MZ,Mozambique
258,South Field,gentle_slope,NULL,NULL,NULL,NULL,NULL,NULL,129,Farmer 1,33,Community 1,NE,Niger
257,Roadside,flat,NULL,NULL,NULL,NULL,NULL,NULL,129,Farmer 1,33,Community 1,NE,Niger
260,South Field,gentle_slope,NULL,NULL,NULL,NULL,NULL,NULL,130,Farmer 2,33,Community 1,NE,Niger
259,Roadside,flat,NULL,NULL,NULL,NULL,NULL,NULL,130,Farmer 2,33,Community 1,NE,Niger
262,South Field,gentle_slope,NULL,NULL,NULL,NULL,NULL,NULL,131,Farmer 3 ,33,Community 1,NE,Niger
261,Roadside,flat,NULL,NULL,NULL,NULL,NULL,NULL,131,Farmer 3 ,33,Community 1,NE,Niger
263,Roadside,flat,NULL,NULL,NULL,NULL,NULL,NULL,132,Farmer 4,33,Community 1,NE,Niger
264,South Field,gentle_slope,NULL,NULL,NULL,NULL,NULL,NULL,132,Farmer 4,33,Community 1,NE,Niger
265,Roadside,flat,NULL,NULL,NULL,NULL,NULL,NULL,133,Farmer 1,34,Community 2,NE,Niger
266,South Field,gentle_slope,NULL,NULL,NULL,NULL,NULL,NULL,133,Farmer 1,34,Community 2,NE,Niger
267,Roadside,flat,NULL,NULL,NULL,NULL,NULL,NULL,134,Farmer 2,34,Community 2,NE,Niger
268,South Field,gentle_slope,NULL,NULL,NULL,NULL,NULL,NULL,134,Farmer 2,34,Community 2,NE,Niger
269,Roadside,flat,NULL,NULL,NULL,NULL,NULL,NULL,135,Farmer 3 ,34,Community 2,NE,Niger
270,South Field,gentle_slope,NULL,NULL,NULL,NULL,NULL,NULL,135,Farmer 3 ,34,Community 2,NE,Niger
271,Roadside,flat,NULL,NULL,NULL,NULL,NULL,NULL,136,Farmer 4,34,Community 2,NE,Niger
272,South Field,gentle_slope,NULL,NULL,NULL,NULL,NULL,NULL,136,Farmer 4,34,Community 2,NE,Niger
273,Roadside,flat,NULL,NULL,NULL,NULL,NULL,NULL,137,Farmer 1,35,Community 3,NE,Niger
274,South Field,gentle_slope,NULL,NULL,NULL,NULL,NULL,NULL,137,Farmer 1,35,Community 3,NE,Niger
275,Roadside,flat,NULL,NULL,NULL,NULL,NULL,NULL,138,Farmer 2,35,Community 3,NE,Niger
276,South Field,gentle_slope,NULL,NULL,NULL,NULL,NULL,NULL,138,Farmer 2,35,Community 3,NE,Niger
278,South Field,gentle_slope,NULL,NULL,NULL,NULL,NULL,NULL,139,Farmer 3 ,35,Community 3,NE,Niger
277,Roadside,flat,NULL,NULL,NULL,NULL,NULL,NULL,139,Farmer 3 ,35,Community 3,NE,Niger
280,South Field,gentle_slope,NULL,NULL,NULL,NULL,NULL,NULL,140,Farmer 4,35,Community 3,NE,Niger
279,Roadside,flat,NULL,NULL,NULL,NULL,NULL,NULL,140,Farmer 4,35,Community 3,NE,Niger
282,South Field,gentle_slope,NULL,NULL,NULL,NULL,NULL,NULL,141,Farmer 1,36,Community 4,NE,Niger
281,Roadside,flat,NULL,NULL,NULL,NULL,NULL,NULL,141,Farmer 1,36,Community 4,NE,Niger
284,South Field,gentle_slope,NULL,NULL,NULL,NULL,NULL,NULL,142,Farmer 2,36,Community 4,NE,Niger
283,Roadside,flat,NULL,NULL,NULL,NULL,NULL,NULL,142,Farmer 2,36,Community 4,NE,Niger
286,South Field,gentle_slope,NULL,NULL,NULL,NULL,NULL,NULL,143,Farmer 3 ,36,Community 4,NE,Niger
285,Roadside,flat,NULL,NULL,NULL,NULL,NULL,NULL,143,Farmer 3 ,36,Community 4,NE,Niger
288,South Field,gentle_slope,NULL,NULL,NULL,NULL,NULL,NULL,144,Farmer 4,36,Community 4,NE,Niger
287,Roadside,flat,NULL,NULL,NULL,NULL,NULL,NULL,144,Farmer 4,36,Community 4,NE,Niger
290,South Field,gentle_slope,NULL,NULL,NULL,NULL,NULL,NULL,145,Farmer 1,37,Community 1,PE,Peru
289,Roadside,flat,NULL,NULL,NULL,NULL,NULL,NULL,145,Farmer 1,37,Community 1,PE,Peru
291,Roadside,flat,NULL,NULL,NULL,NULL,NULL,NULL,146,Farmer 2,37,Community 1,PE,Peru
292,South Field,gentle_slope,NULL,NULL,NULL,NULL,NULL,NULL,146,Farmer 2,37,Community 1,PE,Peru
293,Roadside,flat,NULL,NULL,NULL,NULL,NULL,NULL,147,Farmer 3 ,37,Community 1,PE,Peru
294,South Field,gentle_slope,NULL,NULL,NULL,NULL,NULL,NULL,147,Farmer 3 ,37,Community 1,PE,Peru
295,Roadside,flat,NULL,NULL,NULL,NULL,NULL,NULL,148,Farmer 4,37,Community 1,PE,Peru
296,South Field,gentle_slope,NULL,NULL,NULL,NULL,NULL,NULL,148,Farmer 4,37,Community 1,PE,Peru
297,Roadside,flat,NULL,NULL,NULL,NULL,NULL,NULL,149,Farmer 1,38,Community 2,PE,Peru
298,South Field,gentle_slope,NULL,NULL,NULL,NULL,NULL,NULL,149,Farmer 1,38,Community 2,PE,Peru
299,Roadside,flat,NULL,NULL,NULL,NULL,NULL,NULL,150,Farmer 2,38,Community 2,PE,Peru
300,South Field,gentle_slope,NULL,NULL,NULL,NULL,NULL,NULL,150,Farmer 2,38,Community 2,PE,Peru
301,Roadside,flat,NULL,NULL,NULL,NULL,NULL,NULL,151,Farmer 3 ,38,Community 2,PE,Peru
302,South Field,gentle_slope,NULL,NULL,NULL,NULL,NULL,NULL,151,Farmer 3 ,38,Community 2,PE,Peru
303,Roadside,flat,NULL,NULL,NULL,NULL,NULL,NULL,152,Farmer 4,38,Community 2,PE,Peru
304,South Field,gentle_slope,NULL,NULL,NULL,NULL,NULL,NULL,152,Farmer 4,38,Community 2,PE,Peru
306,South Field,gentle_slope,NULL,NULL,NULL,NULL,NULL,NULL,153,Farmer 1,39,Community 3,PE,Peru
305,Roadside,flat,NULL,NULL,NULL,NULL,NULL,NULL,153,Farmer 1,39,Community 3,PE,Peru
308,South Field,gentle_slope,NULL,NULL,NULL,NULL,NULL,NULL,154,Farmer 2,39,Community 3,PE,Peru
307,Roadside,flat,NULL,NULL,NULL,NULL,NULL,NULL,154,Farmer 2,39,Community 3,PE,Peru
310,South Field,gentle_slope,NULL,NULL,NULL,NULL,NULL,NULL,155,Farmer 3 ,39,Community 3,PE,Peru
309,Roadside,flat,NULL,NULL,NULL,NULL,NULL,NULL,155,Farmer 3 ,39,Community 3,PE,Peru
312,South Field,gentle_slope,NULL,NULL,NULL,NULL,NULL,NULL,156,Farmer 4,39,Community 3,PE,Peru
311,Roadside,flat,NULL,NULL,NULL,NULL,NULL,NULL,156,Farmer 4,39,Community 3,PE,Peru
314,South Field,gentle_slope,NULL,NULL,NULL,NULL,NULL,NULL,157,Farmer 1,40,Community 4,PE,Peru
313,Roadside,flat,NULL,NULL,NULL,NULL,NULL,NULL,157,Farmer 1,40,Community 4,PE,Peru
316,South Field,gentle_slope,NULL,NULL,NULL,NULL,NULL,NULL,158,Farmer 2,40,Community 4,PE,Peru
315,Roadside,flat,NULL,NULL,NULL,NULL,NULL,NULL,158,Farmer 2,40,Community 4,PE,Peru
318,South Field,gentle_slope,NULL,NULL,NULL,NULL,NULL,NULL,159,Farmer 3 ,40,Community 4,PE,Peru
317,Roadside,flat,NULL,NULL,NULL,NULL,NULL,NULL,159,Farmer 3 ,40,Community 4,PE,Peru
320,South Field,gentle_slope,NULL,NULL,NULL,NULL,NULL,NULL,160,Farmer 4,40,Community 4,PE,Peru
319,Roadside,flat,NULL,NULL,NULL,NULL,NULL,NULL,160,Farmer 4,40,Community 4,PE,Peru
321,Roadside,flat,NULL,NULL,NULL,NULL,NULL,NULL,161,Farmer 1,41,Community 1,TZ,United Republic of Tanzania
322,South Field,gentle_slope,NULL,NULL,NULL,NULL,NULL,NULL,161,Farmer 1,41,Community 1,TZ,United Republic of Tanzania
323,Roadside,flat,NULL,NULL,NULL,NULL,NULL,NULL,162,Farmer 2,41,Community 1,TZ,United Republic of Tanzania
324,South Field,gentle_slope,NULL,NULL,NULL,NULL,NULL,NULL,162,Farmer 2,41,Community 1,TZ,United Republic of Tanzania
325,Roadside,flat,NULL,NULL,NULL,NULL,NULL,NULL,163,Farmer 3 ,41,Community 1,TZ,United Republic of Tanzania
326,South Field,gentle_slope,NULL,NULL,NULL,NULL,NULL,NULL,163,Farmer 3 ,41,Community 1,TZ,United Republic of Tanzania
327,Roadside,flat,NULL,NULL,NULL,NULL,NULL,NULL,164,Farmer 4,41,Community 1,TZ,United Republic of Tanzania
328,South Field,gentle_slope,NULL,NULL,NULL,NULL,NULL,NULL,164,Farmer 4,41,Community 1,TZ,United Republic of Tanzania
329,Roadside,flat,NULL,NULL,NULL,NULL,NULL,NULL,165,Farmer 1,42,Community 2,TZ,United Republic of Tanzania
330,South Field,gentle_slope,NULL,NULL,NULL,NULL,NULL,NULL,165,Farmer 1,42,Community 2,TZ,United Republic of Tanzania
332,South Field,gentle_slope,NULL,NULL,NULL,NULL,NULL,NULL,166,Farmer 2,42,Community 2,TZ,United Republic of Tanzania
331,Roadside,flat,NULL,NULL,NULL,NULL,NULL,NULL,166,Farmer 2,42,Community 2,TZ,United Republic of Tanzania
334,South Field,gentle_slope,NULL,NULL,NULL,NULL,NULL,NULL,167,Farmer 3 ,42,Community 2,TZ,United Republic of Tanzania
333,Roadside,flat,NULL,NULL,NULL,NULL,NULL,NULL,167,Farmer 3 ,42,Community 2,TZ,United Republic of Tanzania
336,South Field,gentle_slope,NULL,NULL,NULL,NULL,NULL,NULL,168,Farmer 4,42,Community 2,TZ,United Republic of Tanzania
335,Roadside,flat,NULL,NULL,NULL,NULL,NULL,NULL,168,Farmer 4,42,Community 2,TZ,United Republic of Tanzania
338,South Field,gentle_slope,NULL,NULL,NULL,NULL,NULL,NULL,169,Farmer 1,43,Community 3,TZ,United Republic of Tanzania
337,Roadside,flat,NULL,NULL,NULL,NULL,NULL,NULL,169,Farmer 1,43,Community 3,TZ,United Republic of Tanzania
340,South Field,gentle_slope,NULL,NULL,NULL,NULL,NULL,NULL,170,Farmer 2,43,Community 3,TZ,United Republic of Tanzania
339,Roadside,flat,NULL,NULL,NULL,NULL,NULL,NULL,170,Farmer 2,43,Community 3,TZ,United Republic of Tanzania
342,South Field,gentle_slope,NULL,NULL,NULL,NULL,NULL,NULL,171,Farmer 3 ,43,Community 3,TZ,United Republic of Tanzania
341,Roadside,flat,NULL,NULL,NULL,NULL,NULL,NULL,171,Farmer 3 ,43,Community 3,TZ,United Republic of Tanzania
344,South Field,gentle_slope,NULL,NULL,NULL,NULL,NULL,NULL,172,Farmer 4,43,Community 3,TZ,United Republic of Tanzania
343,Roadside,flat,NULL,NULL,NULL,NULL,NULL,NULL,172,Farmer 4,43,Community 3,TZ,United Republic of Tanzania
346,South Field,gentle_slope,NULL,NULL,NULL,NULL,NULL,NULL,173,Farmer 1,44,Community 4,TZ,United Republic of Tanzania
345,Roadside,flat,NULL,NULL,NULL,NULL,NULL,NULL,173,Farmer 1,44,Community 4,TZ,United Republic of Tanzania
348,South Field,gentle_slope,NULL,NULL,NULL,NULL,NULL,NULL,174,Farmer 2,44,Community 4,TZ,United Republic of Tanzania
347,Roadside,flat,NULL,NULL,NULL,NULL,NULL,NULL,174,Farmer 2,44,Community 4,TZ,United Republic of Tanzania
349,Roadside,flat,NULL,NULL,NULL,NULL,NULL,NULL,175,Farmer 3 ,44,Community 4,TZ,United Republic of Tanzania
350,South Field,gentle_slope,NULL,NULL,NULL,NULL,NULL,NULL,175,Farmer 3 ,44,Community 4,TZ,United Republic of Tanzania
351,Roadside,flat,NULL,NULL,NULL,NULL,NULL,NULL,176,Farmer 4,44,Community 4,TZ,United Republic of Tanzania
352,South Field,gentle_slope,NULL,NULL,NULL,NULL,NULL,NULL,176,Farmer 4,44,Community 4,TZ,United Republic of Tanzania
353,Roadside,flat,NULL,NULL,NULL,NULL,NULL,NULL,177,Farmer 1,45,Community 1,UG,Uganda
354,South Field,gentle_slope,NULL,NULL,NULL,NULL,NULL,NULL,177,Farmer 1,45,Community 1,UG,Uganda
355,Roadside,flat,NULL,NULL,NULL,NULL,NULL,NULL,178,Farmer 2,45,Community 1,UG,Uganda
356,South Field,gentle_slope,NULL,NULL,NULL,NULL,NULL,NULL,178,Farmer 2,45,Community 1,UG,Uganda
357,Roadside,flat,NULL,NULL,NULL,NULL,NULL,NULL,179,Farmer 3 ,45,Community 1,UG,Uganda
358,South Field,gentle_slope,NULL,NULL,NULL,NULL,NULL,NULL,179,Farmer 3 ,45,Community 1,UG,Uganda
360,South Field,gentle_slope,NULL,NULL,NULL,NULL,NULL,NULL,180,Farmer 4,45,Community 1,UG,Uganda
359,Roadside,flat,NULL,NULL,NULL,NULL,NULL,NULL,180,Farmer 4,45,Community 1,UG,Uganda
362,South Field,gentle_slope,NULL,NULL,NULL,NULL,NULL,NULL,181,Farmer 1,46,Community 2,UG,Uganda
361,Roadside,flat,NULL,NULL,NULL,NULL,NULL,NULL,181,Farmer 1,46,Community 2,UG,Uganda
364,South Field,gentle_slope,NULL,NULL,NULL,NULL,NULL,NULL,182,Farmer 2,46,Community 2,UG,Uganda
363,Roadside,flat,NULL,NULL,NULL,NULL,NULL,NULL,182,Farmer 2,46,Community 2,UG,Uganda
366,South Field,gentle_slope,NULL,NULL,NULL,NULL,NULL,NULL,183,Farmer 3 ,46,Community 2,UG,Uganda
365,Roadside,flat,NULL,NULL,NULL,NULL,NULL,NULL,183,Farmer 3 ,46,Community 2,UG,Uganda
368,South Field,gentle_slope,NULL,NULL,NULL,NULL,NULL,NULL,184,Farmer 4,46,Community 2,UG,Uganda
367,Roadside,flat,NULL,NULL,NULL,NULL,NULL,NULL,184,Farmer 4,46,Community 2,UG,Uganda
370,South Field,gentle_slope,NULL,NULL,NULL,NULL,NULL,NULL,185,Farmer 1,47,Community 3,UG,Uganda
369,Roadside,flat,NULL,NULL,NULL,NULL,NULL,NULL,185,Farmer 1,47,Community 3,UG,Uganda
372,South Field,gentle_slope,NULL,NULL,NULL,NULL,NULL,NULL,186,Farmer 2,47,Community 3,UG,Uganda
371,Roadside,flat,NULL,NULL,NULL,NULL,NULL,NULL,186,Farmer 2,47,Community 3,UG,Uganda
374,South Field,gentle_slope,NULL,NULL,NULL,NULL,NULL,NULL,187,Farmer 3 ,47,Community 3,UG,Uganda
373,Roadside,flat,NULL,NULL,NULL,NULL,NULL,NULL,187,Farmer 3 ,47,Community 3,UG,Uganda
375,Roadside,flat,NULL,NULL,NULL,NULL,NULL,NULL,188,Farmer 4,47,Community 3,UG,Uganda
376,South Field,gentle_slope,NULL,NULL,NULL,NULL,NULL,NULL,188,Farmer 4,47,Community 3,UG,Uganda
377,Roadside,flat,NULL,NULL,NULL,NULL,NULL,NULL,189,Farmer 1,48,Community 4,UG,Uganda
378,South Field,gentle_slope,NULL,NULL,NULL,NULL,NULL,NULL,189,Farmer 1,48,Community 4,UG,Uganda
379,Roadside,flat,NULL,NULL,NULL,NULL,NULL,NULL,190,Farmer 2,48,Community 4,UG,Uganda
380,South Field,gentle_slope,NULL,NULL,NULL,NULL,NULL,NULL,190,Farmer 2,48,Community 4,UG,Uganda
381,Roadside,flat,NULL,NULL,NULL,NULL,NULL,NULL,191,Farmer 3 ,48,Community 4,UG,Uganda
382,South Field,gentle_slope,NULL,NULL,NULL,NULL,NULL,NULL,191,Farmer 3 ,48,Community 4,UG,Uganda
383,Roadside,flat,NULL,NULL,NULL,NULL,NULL,NULL,192,Farmer 4,48,Community 4,UG,Uganda
384,South Field,gentle_slope,NULL,NULL,NULL,NULL,NULL,NULL,192,Farmer 4,48,Community 4,UG,Uganda